[
    {
        "Altitude(m)": 559391.9661236547,
        "Argument of Periapsis(deg)": 0.033114955553567506,
        "Eccentricity": 0.0,
        "Inclination(deg)": 53.0,
        "Latitude(deg)": 50.92939357433891,
        "Longitude(deg)": -86.59749491500226,
        "Mean Anomaly(deg)": -284.0874356621121,
        "RAAN(deg)": 309.9507168426401,
        "Satellite Name": "Starlink Shell 1 1365",
        "Satellite Number": 1365,
        "Semi-Major Axis(m)": 6931778.249405717,
        "Time(s)": 950
    },
    {
        "Altitude(m)": 559435.2209906997,
        "Argument of Periapsis(deg)": 0.03346353403307874,
        "Eccentricity": 0.0,
        "Inclination(deg)": 53.0,
        "Latitude(deg)": 51.11813281824896,
        "Longitude(deg)": -85.69093982800155,
        "Mean Anomaly(deg)": -283.46060445855534,
        "RAAN(deg)": 309.9501980725626,
        "Satellite Name": "Starlink Shell 1 1365",
        "Satellite Number": 1365,
        "Semi-Major Axis(m)": 6931778.249405717,
        "Time(s)": 960
    },
    {
        "Altitude(m)": 559476.6861404706,
        "Argument of Periapsis(deg)": 0.03381211251258998,
        "Eccentricity": 0.0,
        "Inclination(deg)": 53.0,
        "Latitude(deg)": 51.299125226208254,
        "Longitude(deg)": -84.77679581194307,
        "Mean Anomaly(deg)": -282.8337732549987,
        "RAAN(deg)": 309.94967930248515,
        "Satellite Name": "Starlink Shell 1 1365",
        "Satellite Number": 1365,
        "Semi-Major Axis(m)": 6931778.249405717,
        "Time(s)": 970
    },
    {
        "Altitude(m)": 559516.3365307889,
        "Argument of Periapsis(deg)": 0.034160690992101214,
        "Eccentricity": 0.0,
        "Inclination(deg)": 53.0,
        "Latitude(deg)": 51.47226021939644,
        "Longitude(deg)": -83.85527845240165,
        "Mean Anomaly(deg)": -282.2069420514419,
        "RAAN(deg)": 309.94916053240763,
        "Satellite Name": "Starlink Shell 1 1365",
        "Satellite Number": 1365,
        "Semi-Major Axis(m)": 6931778.249405717,
        "Time(s)": 980
    },
    {
        "Altitude(m)": 559554.1482363018,
        "Argument of Periapsis(deg)": 0.034509269471612446,
        "Eccentricity": 0.0,
        "Inclination(deg)": 53.0,
        "Latitude(deg)": 51.637430084821034,
        "Longitude(deg)": -82.92661927760886,
        "Mean Anomaly(deg)": -281.5801108478852,
        "RAAN(deg)": 309.94864176233017,
        "Satellite Name": "Starlink Shell 1 1365",
        "Satellite Number": 1365,
        "Semi-Major Axis(m)": 6931778.249405717,
        "Time(s)": 990
    }
]